ONEWEB-0461             
1 51649U 22012AD  24320.89919627  .00002292  00000+0  58672-2 0  9998
2 51649  87.9070 121.0570 0001638  96.1126 264.0192 13.17671601137735
ONEWEB-0463             
1 51650U 22012AE  24320.72879706  .00000075  00000+0  16102-3 0  9995
2 51650  87.9076 121.1444 0001644  95.7497 264.3822 13.17647964137498
ONEWEB-0464             
1 51651U 22012AF  24320.93029610  .00000131  00000+0  33906-3 0  9994
2 51651  87.8895 151.4255 0001677  73.7841 286.3471 13.10369780133599
ONEWEB-0468             
1 51652U 22012AG  24320.93692935 -.00000370  00000+0 -10969-2 0  9991
2 51652  87.8895 151.4167 0001520  85.1818 274.9482 13.10369104133573
ONEWEB-0473             
1 51653U 22012AH  24321.07471722  .00000512  00000+0  14294-2 0  9998
2 51653  87.8895 151.3925 0001645  86.1417 273.9899 13.10369946134890
ONEWEB-0474             
1 51654U 22012AJ  24320.91370985  .00000724  00000+0  20370-2 0  9997
2 51654  87.8885 151.4073 0001761  80.7038 279.4289 13.10372420133561
ONEWEB-0475             
1 51655U 22012AK  24320.89248093  .00000039  00000+0  66980-4 0  9997
2 51655  87.9074 121.0912 0002439  88.0979 272.0432 13.17649469137533
ONEWEB-0490             
1 54113U 22138A   24320.72826601  .00000088  00000+0  18628-3 0  9996
2 54113  87.9182  59.9875 0001772  96.5348 263.5987 13.19722752100534
